{"type":"FeatureCollection","name":"bermuda-parishes","crs":{"type":"name","properties":{"name":"urn:ogc:def:crs:OGC:1.3:CRS84"}},"license":"ODbL 1.0 (OpenStreetMap contributors)","source":"OpenStreetMap via Overpass API","features":[{"type":"Feature","properties":{"name":"Pembroke","osm_id":2833627,"wikidata":"Q1756036"},"geometry":{"type":"MultiPolygon","coordinates":[[[[-64.8139,32.28935],[-64.8141,32.28965],[-64.8143,32.28942],[-64.8139,32.28935]]],[[[-64.81347,32.28962],[-64.81288,32.28972],[-64.81256,32.29039],[-64.81324,32.29024],[-64.81369,32.28982],[-64.81347,32.28962]]],[[[-64.81168,32.29015],[-64.81212,32.29007],[-64.81201,32.28987],[-64.81168,32.29015]]],[[[-64.81211,32.29065],[-64.81188,32.29082],[-64.81216,32.29098],[-64.81226,32.29081],[-64.81211,32.29065]]],[[[-64.81188,32.29134],[-64.81196,32.29092],[-64.81116,32.29091],[-64.81134,32.29131],[-64.81188,32.29134]]],[[[-64.81649,32.30296],[-64.81714,32.3032],[-64.81752,32.30295],[-64.81655,32.3028],[-64.81649,32.30296]]],[[[-64.81306,32.3077],[-64.81324,32.30771],[-64.81344,32.30737],[-64.81326,32.30736],[-64.81306,32.3077]]],[[[-64.81439,32.3078],[-64.81414,32.30751],[-64.81379,32.30761],[-64.81398,32.30786],[-64.81439,32.3078]]],[[[-64.81591,32.30785],[-64.81528,32.30785],[-64.81501,32.30802],[-64.81549,32.30824],[-64.81591,32.30785]]],[[[-64.81954,32.30832],[-64.81842,32.30787],[-64.81752,32.30772],[-64.81871,32.30861],[-64.81862,32.30836],[-64.81957,32.3087],[-64.81954,32.30832]]],[[[-64.82061,32.30881],[-64.82024,32.30865],[-64.81977,32.30855],[-64.82007,32.30893],[-64.82061,32.30881]]],[[[-64.8007,32.29086],[-64.80002,32.29018],[-64.79948,32.29064],[-64.80068,32.29166],[-64.80087,32.29136],[-64.80155,32.29113],[-64.8007,32.29086]]],[[[-64.81031,32.29377],[-64.81155,32.29253],[-64.8111,32.29238],[-64.8111,32.29276],[-64.8103,32.29344],[-64.81031,32.29377]]],[[[-64.81004,32.29324],[-64.80991,32.29292],[-64.81047,32.29283],[-64.81046,32.29262],[-64.80931,32.29257],[-64.80932,32.2929],[-64.80859,32.29378],[-64.80896,32.2953],[-64.80931,32.29549],[-64.80962,32.29538],[-64.80938,32.29527],[-64.81004,32.29324]]],[[[-64.80572,32.29613],[-64.80551,32.29623],[-64.80552,32.29648],[-64.80582,32.29641],[-64.80572,32.29613]]],[[[-64.80667,32.29609],[-64.80607,32.29646],[-64.80609,32.29669],[-64.8074,32.29639],[-64.80771,32.29611],[-64.80667,32.29609]]],[[[-64.80856,32.29637],[-64.80872,32.29674],[-64.8093,32.29677],[-64.8092,32.29618],[-64.8088,32.29611],[-64.80856,32.29637]]],[[[-64.80963,32.29728],[-64.80909,32.29736],[-64.8094,32.29767],[-64.80963,32.29728]]],[[[-64.80946,32.29841],[-64.80945,32.29788],[-64.80846,32.29805],[-64.80921,32.29863],[-64.80946,32.29841]]],[[[-64.79027,32.29049],[-64.78884,32.29093],[-64.78884,32.29134],[-64.78743,32.29152],[-64.78879,32.29604],[-64.78842,32.29622],[-64.78892,32.29822],[-64.78505,32.29887],[-64.78438,32.29739],[-64.78331,32.29767],[-64.78363,32.2991],[-64.7799,32.29973],[-64.77749,32.29228],[-64.77754,32.29286],[-64.77716,32.2932],[-64.77501,32.2934],[-64.77446,32.29369],[-64.77376,32.29341],[-64.77262,32.29339],[-64.77266,32.29322],[-64.77069,32.2935],[-64.77566,32.3073],[-64.77598,32.30707],[-64.77638,32.30747],[-64.7784,32.30691],[-64.77893,32.30649],[-64.781,32.30661],[-64.781,32.3064],[-64.78239,32.30605],[-64.78325,32.30658],[-64.78365,32.30636],[-64.78342,32.30603],[-64.78435,32.30606],[-64.78498,32.30575],[-64.78514,32.30635],[-64.78547,32.30636],[-64.78683,32.30561],[-64.78773,32.30593],[-64.78822,32.30566],[-64.78907,32.3057],[-64.78958,32.30539],[-64.79257,32.30502],[-64.79521,32.30548],[-64.79803,32.3054],[-64.79898,32.30571],[-64.7997,32.30537],[-64.80011,32.30579],[-64.80105,32.30561],[-64.80086,32.30588],[-64.80151,32.30582],[-64.80196,32.30609],[-64.80303,32.3058],[-64.80355,32.30606],[-64.80334,32.30677],[-64.80384,32.3069],[-64.80409,32.30659],[-64.80461,32.3067],[-64.80491,32.30612],[-64.80545,32.30674],[-64.80521,32.30704],[-64.8048,32.30695],[-64.80533,32.30752],[-64.80592,32.30777],[-64.80639,32.30752],[-64.80665,32.30794],[-64.80697,32.30798],[-64.80981,32.30769],[-64.8107,32.30725],[-64.81059,32.30749],[-64.81094,32.30751],[-64.81093,32.30715],[-64.81114,32.30747],[-64.81159,32.30734],[-64.81198,32.30774],[-64.81204,32.30751],[-64.81247,32.30758],[-64.81266,32.30727],[-64.81302,32.30737],[-64.81376,32.30699],[-64.81519,32.30727],[-64.81657,32.30715],[-64.81644,32.30685],[-64.81564,32.30655],[-64.81491,32.30682],[-64.81454,32.30648],[-64.8145,32.30602],[-64.81497,32.30557],[-64.81599,32.30556],[-64.81614,32.30589],[-64.81693,32.30584],[-64.81704,32.30555],[-64.81684,32.30537],[-64.81706,32.30501],[-64.81639,32.30503],[-64.81631,32.30446],[-64.81753,32.30436],[-64.81744,32.30395],[-64.81662,32.3036],[-64.81635,32.3032],[-64.81559,32.30322],[-64.81516,32.30297],[-64.81461,32.30312],[-64.81423,32.30373],[-64.81412,32.30279],[-64.81338,32.30276],[-64.81274,32.30196],[-64.81252,32.30084],[-64.81269,32.30037],[-64.81315,32.30005],[-64.81326,32.29967],[-64.81437,32.2992],[-64.81285,32.29935],[-64.8115,32.30033],[-64.81127,32.30107],[-64.81042,32.30092],[-64.81041,32.30145],[-64.8108,32.30171],[-64.81029,32.30211],[-64.80978,32.30305],[-64.80928,32.30302],[-64.80864,32.30208],[-64.8092,32.30161],[-64.80881,32.30117],[-64.80784,32.30252],[-64.80701,32.3025],[-64.80626,32.30285],[-64.80556,32.30253],[-64.80451,32.30146],[-64.80088,32.30067],[-64.80106,32.30036],[-64.8015,32.30045],[-64.80229,32.3002],[-64.80399,32.3007],[-64.8041,32.29986],[-64.80453,32.29969],[-64.80547,32.30015],[-64.80557,32.30103],[-64.80616,32.30088],[-64.80697,32.30171],[-64.80738,32.30173],[-64.8083,32.30091],[-64.80889,32.301],[-64.80908,32.30071],[-64.80883,32.3002],[-64.80792,32.30072],[-64.80769,32.30049],[-64.80832,32.30027],[-64.80645,32.29991],[-64.807,32.29935],[-64.8065,32.29832],[-64.80665,32.29799],[-64.80637,32.29699],[-64.80567,32.29721],[-64.80568,32.29762],[-64.8053,32.29786],[-64.80484,32.2979],[-64.80446,32.29754],[-64.80432,32.29787],[-64.80233,32.29763],[-64.80216,32.29724],[-64.8027,32.2966],[-64.80217,32.29591],[-64.80145,32.29559],[-64.80138,32.29507],[-64.80082,32.29445],[-64.80088,32.29419],[-64.80131,32.29406],[-64.80227,32.29476],[-64.80169,32.29474],[-64.80157,32.29507],[-64.80278,32.29564],[-64.80299,32.29539],[-64.80298,32.29481],[-64.80373,32.29557],[-64.80386,32.2963],[-64.80501,32.29731],[-64.80544,32.29669],[-64.80523,32.29638],[-64.80464,32.29635],[-64.80467,32.29557],[-64.80566,32.29557],[-64.80606,32.29535],[-64.80658,32.29577],[-64.80724,32.29575],[-64.80693,32.29519],[-64.80723,32.2949],[-64.80666,32.29452],[-64.8071,32.294],[-64.80672,32.29347],[-64.80695,32.29339],[-64.80684,32.29261],[-64.80714,32.29222],[-64.80686,32.29192],[-64.8063,32.29202],[-64.80576,32.29156],[-64.80453,32.29126],[-64.80423,32.2916],[-64.8028,32.29201],[-64.80233,32.29244],[-64.80132,32.29227],[-64.80063,32.29257],[-64.80062,32.29347],[-64.80022,32.29341],[-64.80012,32.29373],[-64.7988,32.29338],[-64.7987,32.29361],[-64.79738,32.29234],[-64.79709,32.29167],[-64.79641,32.29165],[-64.79599,32.29087],[-64.79544,32.2908],[-64.79566,32.29149],[-64.79521,32.29198],[-64.79464,32.29163],[-64.79281,32.29139],[-64.79287,32.29102],[-64.79421,32.29117],[-64.7943,32.29083],[-64.79387,32.29045],[-64.7939,32.29016],[-64.79008,32.28994],[-64.79027,32.29049]]],[[[-64.80968,32.29965],[-64.80948,32.29924],[-64.80911,32.29924],[-64.80928,32.29972],[-64.80968,32.29965]]],[[[-64.80951,32.30103],[-64.80929,32.30131],[-64.80951,32.30131],[-64.80951,32.30103]]]]}},{"type":"Feature","properties":{"name":"Sandys","osm_id":3644223,"wikidata":"Q121782"},"geometry":{"type":"MultiPolygon","coordinates":[[[[-64.88417,32.28293],[-64.88181,32.28403],[-64.88153,32.28478],[-64.88233,32.28475],[-64.88588,32.2833],[-64.88642,32.28274],[-64.8857,32.28236],[-64.88575,32.28195],[-64.887,32.28199],[-64.88665,32.28154],[-64.88663,32.28121],[-64.88686,32.28109],[-64.88466,32.27758],[-64.88471,32.27724],[-64.88426,32.27694],[-64.88425,32.27646],[-64.88252,32.2732],[-64.87988,32.26633],[-64.87968,32.26532],[-64.87349,32.26856],[-64.87249,32.26697],[-64.86517,32.27077],[-64.86581,32.27128],[-64.86505,32.27186],[-64.86444,32.27142],[-64.86336,32.27124],[-64.86327,32.27093],[-64.86367,32.27055],[-64.86341,32.27055],[-64.86315,32.27101],[-64.86259,32.27092],[-64.86192,32.27135],[-64.86001,32.2712],[-64.8596,32.27068],[-64.85663,32.26949],[-64.85476,32.26935],[-64.85387,32.26791],[-64.85371,32.26797],[-64.85445,32.26917],[-64.85418,32.26929],[-64.85178,32.26891],[-64.85019,32.26928],[-64.85013,32.2691],[-64.85005,32.26933],[-64.84809,32.26963],[-64.84767,32.26993],[-64.84794,32.27059],[-64.84932,32.27169],[-64.85022,32.27186],[-64.85573,32.27254],[-64.85676,32.27221],[-64.85978,32.27222],[-64.85961,32.27185],[-64.8568,32.27183],[-64.85547,32.27113],[-64.85574,32.27066],[-64.85662,32.27064],[-64.85703,32.27126],[-64.85827,32.27136],[-64.85868,32.27115],[-64.86384,32.27224],[-64.86388,32.2728],[-64.86447,32.27341],[-64.86582,32.27368],[-64.86584,32.27385],[-64.86807,32.27433],[-64.87034,32.27407],[-64.8717,32.27505],[-64.87259,32.2749],[-64.87383,32.27598],[-64.87493,32.27739],[-64.87621,32.27831],[-64.87875,32.27948],[-64.87896,32.27941],[-64.87871,32.27895],[-64.87892,32.2786],[-64.8805,32.27887],[-64.88077,32.27869],[-64.88081,32.27833],[-64.8803,32.27739],[-64.88096,32.27741],[-64.88126,32.27714],[-64.88101,32.2768],[-64.88026,32.27683],[-64.87995,32.27585],[-64.88013,32.27558],[-64.88055,32.27591],[-64.88122,32.27594],[-64.88321,32.27754],[-64.88319,32.27849],[-64.88282,32.2792],[-64.88382,32.27993],[-64.88355,32.28044],[-64.88379,32.281],[-64.88425,32.28133],[-64.88563,32.2815],[-64.88497,32.28156],[-64.88479,32.28164],[-64.88485,32.28195],[-64.8836,32.28231],[-64.88413,32.28247],[-64.88417,32.28293]]],[[[-64.88199,32.27849],[-64.88168,32.27751],[-64.88131,32.27761],[-64.88107,32.27918],[-64.88147,32.27921],[-64.88156,32.27877],[-64.88199,32.27849]]],[[[-64.87944,32.27976],[-64.87918,32.27982],[-64.87935,32.28005],[-64.87945,32.27994],[-64.87944,32.27976]]],[[[-64.88057,32.27929],[-64.88017,32.27985],[-64.8805,32.28047],[-64.88125,32.28073],[-64.88097,32.27987],[-64.88112,32.27944],[-64.88091,32.27921],[-64.88057,32.27929]]],[[[-64.88004,32.2799],[-64.87964,32.27992],[-64.87932,32.2803],[-64.87989,32.28037],[-64.88004,32.2799]]],[[[-64.87998,32.28054],[-64.87996,32.28076],[-64.88018,32.28058],[-64.87998,32.28054]]],[[[-64.88703,32.28164],[-64.8872,32.28195],[-64.88751,32.28179],[-64.88726,32.28157],[-64.88703,32.28164]]],[[[-64.87953,32.2856],[-64.88061,32.2853],[-64.88075,32.28494],[-64.88031,32.28475],[-64.87987,32.28514],[-64.87835,32.28538],[-64.87936,32.28591],[-64.87965,32.28583],[-64.87953,32.2856]]],[[[-64.87872,32.28685],[-64.87918,32.28632],[-64.87867,32.28625],[-64.87872,32.28685]]],[[[-64.87748,32.28885],[-64.87823,32.28716],[-64.87719,32.28742],[-64.87702,32.28875],[-64.87748,32.28885]]],[[[-64.87835,32.30465],[-64.87948,32.30567],[-64.87982,32.30564],[-64.88004,32.3059],[-64.88151,32.30468],[-64.88085,32.30466],[-64.88093,32.30434],[-64.88055,32.30382],[-64.88008,32.304],[-64.87915,32.30358],[-64.87908,32.30281],[-64.87747,32.30105],[-64.87766,32.30048],[-64.87739,32.29987],[-64.87614,32.29833],[-64.87549,32.29657],[-64.87546,32.296],[-64.87589,32.29506],[-64.87555,32.29449],[-64.87597,32.2941],[-64.87578,32.29391],[-64.87588,32.29366],[-64.87567,32.29344],[-64.87493,32.29342],[-64.8748,32.29306],[-64.87498,32.2925],[-64.87573,32.29262],[-64.87533,32.29155],[-64.87574,32.291],[-64.87596,32.29004],[-64.87701,32.28921],[-64.87625,32.28927],[-64.87598,32.28964],[-64.87568,32.28964],[-64.87494,32.2894],[-64.87463,32.28884],[-64.87398,32.2884],[-64.87402,32.28749],[-64.87458,32.28696],[-64.8759,32.28636],[-64.87515,32.28567],[-64.87507,32.28523],[-64.87802,32.28267],[-64.87903,32.28127],[-64.87871,32.28086],[-64.87776,32.28097],[-64.87525,32.28186],[-64.87386,32.28269],[-64.87347,32.28265],[-64.87357,32.28227],[-64.87448,32.28171],[-64.87621,32.27944],[-64.87638,32.27954],[-64.8768,32.27911],[-64.87683,32.27862],[-64.87592,32.27844],[-64.87415,32.27891],[-64.87303,32.27977],[-64.87164,32.28016],[-64.87139,32.28055],[-64.86943,32.2808],[-64.86911,32.28107],[-64.86929,32.28245],[-64.87071,32.28298],[-64.86965,32.28317],[-64.86966,32.28342],[-64.8714,32.28385],[-64.87069,32.28444],[-64.8707,32.28486],[-64.87039,32.28512],[-64.87071,32.28607],[-64.87036,32.28667],[-64.87045,32.28693],[-64.86844,32.29008],[-64.86785,32.29198],[-64.86814,32.29345],[-64.86621,32.29339],[-64.86495,32.29391],[-64.86447,32.29424],[-64.86469,32.29451],[-64.86445,32.29454],[-64.86242,32.29391],[-64.86357,32.29456],[-64.86258,32.29495],[-64.86202,32.29695],[-64.85966,32.29655],[-64.8591,32.29674],[-64.85906,32.29703],[-64.86018,32.2972],[-64.8601,32.29767],[-64.85987,32.29766],[-64.86022,32.29779],[-64.86037,32.29849],[-64.85968,32.29842],[-64.85802,32.29715],[-64.8571,32.29708],[-64.85692,32.29729],[-64.85751,32.29787],[-64.85926,32.29863],[-64.86045,32.29878],[-64.86058,32.29947],[-64.86104,32.29964],[-64.86113,32.29995],[-64.86115,32.30067],[-64.86068,32.30099],[-64.86095,32.3019],[-64.86005,32.30254],[-64.86005,32.30302],[-64.85932,32.3034],[-64.85925,32.30417],[-64.8588,32.30419],[-64.85842,32.30452],[-64.85876,32.30485],[-64.85953,32.30461],[-64.86019,32.30508],[-64.86079,32.30517],[-64.86162,32.30425],[-64.86203,32.3041],[-64.86237,32.30429],[-64.86308,32.30383],[-64.86376,32.30393],[-64.86388,32.30432],[-64.86383,32.30394],[-64.86445,32.3039],[-64.8647,32.3035],[-64.86585,32.30399],[-64.86588,32.30474],[-64.86619,32.30509],[-64.86615,32.30583],[-64.86587,32.30602],[-64.86582,32.30594],[-64.86518,32.30596],[-64.86568,32.306],[-64.86601,32.30701],[-64.86668,32.30755],[-64.86677,32.30735],[-64.86696,32.30745],[-64.86761,32.30826],[-64.86719,32.30952],[-64.86564,32.30954],[-64.86491,32.30982],[-64.86479,32.30996],[-64.86521,32.31033],[-64.86686,32.30991],[-64.86757,32.31005],[-64.86901,32.30888],[-64.86992,32.30861],[-64.8699,32.30841],[-64.87028,32.30849],[-64.86968,32.3081],[-64.86929,32.30716],[-64.87118,32.3047],[-64.8729,32.30369],[-64.87555,32.30377],[-64.87733,32.30442],[-64.87752,32.30485],[-64.87835,32.30465]]],[[[-64.88315,32.30553],[-64.88233,32.30532],[-64.88196,32.30556],[-64.88201,32.30585],[-64.88256,32.306],[-64.88321,32.30581],[-64.88315,32.30553]]],[[[-64.86335,32.30952],[-64.86348,32.30954],[-64.86346,32.30949],[-64.86335,32.30952]]],[[[-64.86415,32.3113],[-64.86433,32.31071],[-64.86387,32.31053],[-64.86334,32.31149],[-64.86415,32.3113]]],[[[-64.85759,32.30599],[-64.85783,32.3063],[-64.85819,32.30615],[-64.85788,32.30593],[-64.85759,32.30599]]],[[[-64.85564,32.30808],[-64.85569,32.3075],[-64.8561,32.3075],[-64.85591,32.3072],[-64.85608,32.30701],[-64.85693,32.30677],[-64.85731,32.30554],[-64.85755,32.30539],[-64.85738,32.30526],[-64.85729,32.30547],[-64.85725,32.30516],[-64.85582,32.3058],[-64.85586,32.30636],[-64.85516,32.30639],[-64.8555,32.3075],[-64.85504,32.30808],[-64.85439,32.30789],[-64.8547,32.30723],[-64.85453,32.30669],[-64.85328,32.30667],[-64.85275,32.30682],[-64.85179,32.30809],[-64.85067,32.30876],[-64.85056,32.3094],[-64.85087,32.30925],[-64.85146,32.30951],[-64.85141,32.30977],[-64.8501,32.31021],[-64.85003,32.31057],[-64.8506,32.31155],[-64.85034,32.31206],[-64.85094,32.31217],[-64.85068,32.31267],[-64.85115,32.31269],[-64.85157,32.31227],[-64.85113,32.3117],[-64.85163,32.31107],[-64.8525,32.31072],[-64.85259,32.31038],[-64.85313,32.31036],[-64.85303,32.31004],[-64.85444,32.30938],[-64.8548,32.30862],[-64.85564,32.30808]]],[[[-64.85188,32.31171],[-64.85187,32.31202],[-64.8519,32.3121],[-64.85213,32.31168],[-64.85188,32.31171]]],[[[-64.86276,32.31229],[-64.86323,32.31196],[-64.86263,32.31179],[-64.86225,32.31219],[-64.86276,32.31229]]],[[[-64.84476,32.31194],[-64.845,32.31219],[-64.84527,32.3123],[-64.84498,32.31192],[-64.84476,32.31194]]],[[[-64.84314,32.31223],[-64.84304,32.31203],[-64.84294,32.31222],[-64.84314,32.31223]]],[[[-64.84594,32.31258],[-64.84637,32.31249],[-64.84607,32.31218],[-64.84562,32.31227],[-64.84594,32.31258]]],[[[-64.84247,32.31272],[-64.84379,32.31248],[-64.84386,32.31201],[-64.84333,32.31235],[-64.84253,32.31243],[-64.84247,32.31272]]],[[[-64.8613,32.31254],[-64.86159,32.31276],[-64.86183,32.31235],[-64.8614,32.31233],[-64.8613,32.31254]]],[[[-64.85067,32.31298],[-64.85048,32.31306],[-64.85068,32.31309],[-64.85067,32.31298]]],[[[-64.84134,32.3204],[-64.84225,32.32031],[-64.84231,32.32004],[-64.84274,32.31999],[-64.84352,32.31928],[-64.84447,32.31896],[-64.84504,32.31782],[-64.84555,32.31752],[-64.84555,32.31717],[-64.84615,32.31681],[-64.84666,32.31609],[-64.84714,32.31606],[-64.84723,32.31524],[-64.84749,32.31512],[-64.8472,32.31484],[-64.84964,32.31284],[-64.84941,32.31257],[-64.8496,32.31241],[-64.84763,32.31203],[-64.8472,32.3124],[-64.84645,32.31251],[-64.84632,32.31289],[-64.84513,32.313],[-64.84513,32.31269],[-64.8448,32.31302],[-64.84259,32.31302],[-64.84222,32.31251],[-64.84201,32.31253],[-64.84168,32.31301],[-64.84189,32.31372],[-64.84285,32.31469],[-64.84247,32.31522],[-64.84265,32.31618],[-64.84235,32.31705],[-64.8419,32.31749],[-64.84191,32.31819],[-64.84126,32.31857],[-64.84161,32.31929],[-64.84045,32.31976],[-64.84134,32.3204]]],[[[-64.84164,32.31784],[-64.84146,32.31779],[-64.84118,32.31804],[-64.84155,32.31819],[-64.84164,32.31784]]],[[[-64.83898,32.31972],[-64.83735,32.31914],[-64.8369,32.31869],[-64.83358,32.32063],[-64.83346,32.32111],[-64.83379,32.32126],[-64.8336,32.32069],[-64.83566,32.31949],[-64.83647,32.32047],[-64.83739,32.32068],[-64.83898,32.31972]]],[[[-64.8413,32.32118],[-64.84192,32.32055],[-64.84022,32.32033],[-64.84044,32.32049],[-64.84011,32.32059],[-64.83947,32.31973],[-64.83925,32.31974],[-64.83979,32.3205],[-64.83495,32.32333],[-64.83465,32.3231],[-64.83516,32.32373],[-64.83389,32.32579],[-64.83498,32.32625],[-64.83491,32.32639],[-64.83453,32.32623],[-64.83427,32.32668],[-64.83357,32.32636],[-64.83268,32.32668],[-64.83196,32.32567],[-64.83384,32.32254],[-64.83434,32.32245],[-64.83374,32.32234],[-64.83285,32.32374],[-64.83266,32.32366],[-64.83222,32.32439],[-64.83244,32.32448],[-64.8318,32.32557],[-64.83155,32.32563],[-64.83161,32.32591],[-64.83106,32.32684],[-64.83085,32.32668],[-64.83022,32.32772],[-64.83059,32.32783],[-64.83158,32.32618],[-64.83216,32.32696],[-64.83266,32.32678],[-64.83218,32.32779],[-64.83177,32.32806],[-64.83164,32.32861],[-64.83171,32.32935],[-64.83219,32.33014],[-64.83299,32.33017],[-64.83415,32.32923],[-64.83462,32.32965],[-64.83445,32.32986],[-64.83577,32.3294],[-64.83631,32.32859],[-64.83649,32.32763],[-64.83715,32.32709],[-64.83751,32.32596],[-64.83861,32.32564],[-64.83974,32.32464],[-64.83907,32.3238],[-64.83971,32.32358],[-64.83984,32.32328],[-64.83961,32.32288],[-64.8401,32.32293],[-64.84092,32.3224],[-64.84103,32.32214],[-64.8408,32.32175],[-64.8413,32.32164],[-64.8413,32.32118]]]]}},{"type":"Feature","properties":{"name":"Devonshire","osm_id":3644268,"wikidata":"Q1207018"},"geometry":{"type":"Polygon","coordinates":[[[-64.77566,32.3073],[-64.77069,32.2935],[-64.77044,32.2934],[-64.77001,32.29384],[-64.76523,32.29602],[-64.76192,32.2981],[-64.76061,32.29849],[-64.75566,32.29161],[-64.7553,32.29226],[-64.75493,32.292],[-64.75518,32.29178],[-64.75486,32.29181],[-64.75381,32.29258],[-64.75257,32.29433],[-64.75033,32.29595],[-64.74968,32.29599],[-64.74963,32.29653],[-64.74934,32.29675],[-64.74851,32.297],[-64.74783,32.29656],[-64.74584,32.29751],[-64.74578,32.29814],[-64.74553,32.29837],[-64.74462,32.29815],[-64.74422,32.29891],[-64.74462,32.29948],[-64.74519,32.29969],[-64.74508,32.30065],[-64.74441,32.30078],[-64.74408,32.29991],[-64.74372,32.29966],[-64.74291,32.29988],[-64.74277,32.3],[-64.74316,32.30211],[-64.74199,32.30282],[-64.74199,32.30302],[-64.74067,32.30276],[-64.75039,32.31607],[-64.75351,32.31464],[-64.75611,32.31292],[-64.76034,32.31144],[-64.76421,32.30971],[-64.76475,32.30971],[-64.76474,32.31016],[-64.76499,32.30992],[-64.76537,32.31012],[-64.76575,32.30944],[-64.76556,32.30926],[-64.76676,32.30916],[-64.76858,32.30854],[-64.769,32.30898],[-64.76949,32.30861],[-64.77086,32.30839],[-64.77142,32.30791],[-64.77212,32.30796],[-64.77151,32.30785],[-64.77179,32.30756],[-64.77193,32.30782],[-64.7725,32.30792],[-64.7736,32.30754],[-64.77407,32.30769],[-64.77566,32.3073]]]}},{"type":"Feature","properties":{"name":"Paget","osm_id":3644269,"wikidata":"Q2046204"},"geometry":{"type":"MultiPolygon","coordinates":[[[[-64.80142,32.27992],[-64.80142,32.27972],[-64.80091,32.27962],[-64.80107,32.27995],[-64.80142,32.27992]]],[[[-64.79887,32.28019],[-64.79901,32.28011],[-64.79887,32.2801],[-64.79887,32.28019]]],[[[-64.80317,32.28118],[-64.80243,32.28017],[-64.80193,32.2799],[-64.80221,32.28112],[-64.80158,32.2817],[-64.80029,32.28225],[-64.80009,32.28294],[-64.80034,32.28348],[-64.80154,32.28403],[-64.80358,32.28353],[-64.80612,32.28435],[-64.80604,32.28401],[-64.80534,32.28362],[-64.8053,32.28315],[-64.80491,32.28307],[-64.80424,32.2818],[-64.80317,32.28118]]],[[[-64.79873,32.28626],[-64.79899,32.28634],[-64.79883,32.28614],[-64.79873,32.28626]]],[[[-64.80077,32.28737],[-64.80012,32.28689],[-64.80123,32.2878],[-64.80147,32.28781],[-64.80161,32.28748],[-64.8013,32.28727],[-64.80077,32.28737]]],[[[-64.80242,32.28822],[-64.80224,32.28814],[-64.80225,32.28824],[-64.80242,32.28822]]],[[[-64.80389,32.28886],[-64.80364,32.28873],[-64.80354,32.28892],[-64.80376,32.28907],[-64.80389,32.28886]]],[[[-64.79427,32.28109],[-64.79559,32.28133],[-64.79163,32.27543],[-64.79024,32.27387],[-64.7862,32.26808],[-64.78376,32.2693],[-64.78168,32.26983],[-64.77938,32.27083],[-64.77611,32.27308],[-64.77476,32.27457],[-64.77156,32.27674],[-64.76954,32.27938],[-64.76837,32.28037],[-64.76776,32.2819],[-64.76611,32.28357],[-64.76509,32.2841],[-64.76397,32.28508],[-64.76378,32.28502],[-64.7639,32.28485],[-64.76259,32.28529],[-64.76259,32.28548],[-64.76142,32.2862],[-64.7611,32.28601],[-64.76086,32.2862],[-64.76014,32.28799],[-64.76045,32.28868],[-64.76145,32.28941],[-64.76052,32.28964],[-64.75969,32.29029],[-64.75937,32.29024],[-64.75901,32.28937],[-64.75977,32.28865],[-64.75967,32.28828],[-64.75944,32.28836],[-64.75789,32.28978],[-64.75774,32.29032],[-64.75682,32.29037],[-64.75678,32.29107],[-64.7565,32.29128],[-64.75612,32.2912],[-64.75566,32.29161],[-64.76061,32.29849],[-64.76086,32.29844],[-64.76192,32.2981],[-64.76523,32.29602],[-64.77001,32.29384],[-64.77038,32.29348],[-64.77015,32.29335],[-64.77024,32.29288],[-64.77115,32.29247],[-64.7718,32.293],[-64.77277,32.29257],[-64.7733,32.29275],[-64.77433,32.2923],[-64.77476,32.29237],[-64.77507,32.29196],[-64.77456,32.29138],[-64.77447,32.29068],[-64.77416,32.29061],[-64.7742,32.2902],[-64.77505,32.28989],[-64.77542,32.28932],[-64.7763,32.28913],[-64.77694,32.28975],[-64.7776,32.29],[-64.77898,32.28899],[-64.78065,32.28834],[-64.78112,32.28786],[-64.78137,32.2869],[-64.7823,32.28652],[-64.78217,32.28617],[-64.78242,32.28564],[-64.78339,32.28447],[-64.78465,32.28492],[-64.78585,32.28471],[-64.78695,32.28406],[-64.78955,32.28309],[-64.79037,32.28339],[-64.7914,32.28428],[-64.79159,32.28415],[-64.79109,32.28381],[-64.79111,32.28344],[-64.79164,32.28301],[-64.79185,32.28315],[-64.79178,32.2835],[-64.79256,32.28363],[-64.79272,32.28453],[-64.79333,32.28467],[-64.79347,32.28451],[-64.7931,32.28391],[-64.79341,32.28299],[-64.79326,32.28257],[-64.7922,32.28278],[-64.79241,32.28198],[-64.79427,32.28109]]],[[[-64.79546,32.2844],[-64.79567,32.28421],[-64.79546,32.28387],[-64.79537,32.28397],[-64.79546,32.2844]]],[[[-64.79672,32.28584],[-64.79763,32.28589],[-64.79779,32.2858],[-64.79767,32.28547],[-64.79728,32.28533],[-64.79668,32.28547],[-64.79672,32.28584]]],[[[-64.7844,32.2874],[-64.78402,32.28778],[-64.78418,32.28834],[-64.78389,32.28849],[-64.78481,32.28868],[-64.78604,32.2879],[-64.78575,32.2876],[-64.78538,32.28791],[-64.7844,32.2874]]],[[[-64.76009,32.28922],[-64.75999,32.28937],[-64.75999,32.28959],[-64.76015,32.28945],[-64.76009,32.28922]]],[[[-64.77079,32.29288],[-64.77073,32.29309],[-64.77101,32.2931],[-64.77102,32.29298],[-64.77079,32.29288]]]]}},{"type":"Feature","properties":{"name":"Smith's","osm_id":3644270,"wikidata":"Q1735847"},"geometry":{"type":"MultiPolygon","coordinates":[[[[-64.74646,32.31831],[-64.75039,32.31607],[-64.74067,32.30276],[-64.74014,32.30305],[-64.73949,32.30291],[-64.73959,32.30243],[-64.73921,32.30226],[-64.73923,32.30193],[-64.73777,32.30242],[-64.7378,32.30303],[-64.73762,32.30307],[-64.73796,32.30328],[-64.73709,32.30435],[-64.73664,32.30474],[-64.73426,32.30566],[-64.73387,32.30649],[-64.7331,32.30702],[-64.73207,32.30715],[-64.73202,32.30741],[-64.7291,32.30866],[-64.72867,32.30829],[-64.72809,32.30886],[-64.72716,32.30892],[-64.72651,32.3095],[-64.72584,32.30949],[-64.72535,32.31022],[-64.72425,32.31068],[-64.72338,32.31208],[-64.72303,32.31203],[-64.72226,32.31265],[-64.72152,32.31251],[-64.72113,32.31321],[-64.72132,32.31383],[-64.72102,32.31405],[-64.72027,32.31432],[-64.71955,32.3142],[-64.71758,32.31485],[-64.71653,32.31464],[-64.71582,32.31501],[-64.71514,32.31476],[-64.7152,32.31532],[-64.71433,32.31622],[-64.71373,32.31624],[-64.71343,32.31659],[-64.71367,32.31728],[-64.71416,32.31744],[-64.71416,32.31772],[-64.71272,32.31809],[-64.71263,32.31856],[-64.71283,32.31852],[-64.71298,32.31884],[-64.71282,32.31913],[-64.71234,32.31958],[-64.71139,32.31994],[-64.71122,32.32018],[-64.71136,32.32065],[-64.70961,32.32155],[-64.70835,32.32251],[-64.71384,32.32915],[-64.7144,32.32855],[-64.71592,32.32532],[-64.71596,32.32426],[-64.7148,32.32308],[-64.71481,32.32227],[-64.71542,32.321],[-64.71609,32.32132],[-64.71671,32.32081],[-64.71733,32.32116],[-64.71743,32.32071],[-64.71775,32.32072],[-64.71927,32.32164],[-64.72122,32.32209],[-64.72096,32.3225],[-64.7216,32.32292],[-64.72186,32.32273],[-64.72183,32.32223],[-64.7277,32.3226],[-64.7289,32.3224],[-64.72907,32.32216],[-64.7296,32.32232],[-64.73108,32.32174],[-64.73181,32.32177],[-64.73229,32.32237],[-64.73298,32.32235],[-64.73444,32.32312],[-64.73489,32.32298],[-64.73589,32.32318],[-64.73623,32.32294],[-64.7353,32.32249],[-64.73448,32.32103],[-64.73802,32.31979],[-64.73917,32.32269],[-64.7406,32.32268],[-64.74212,32.3231],[-64.74257,32.32299],[-64.74231,32.32273],[-64.74257,32.3221],[-64.74329,32.32154],[-64.74468,32.32105],[-64.74434,32.32057],[-64.7449,32.32034],[-64.74553,32.31926],[-64.74616,32.31886],[-64.74646,32.31831]]],[[[-64.74282,32.32254],[-64.74316,32.32256],[-64.74322,32.32234],[-64.74291,32.32222],[-64.74282,32.32254]]],[[[-64.7155,32.32243],[-64.71518,32.32256],[-64.7155,32.32267],[-64.7155,32.32243]]],[[[-64.74433,32.32292],[-64.74399,32.32275],[-64.74313,32.3232],[-64.74405,32.32354],[-64.74433,32.32292]]]]}},{"type":"Feature","properties":{"name":"Southampton","osm_id":3644271,"wikidata":"Q1323054"},"geometry":{"type":"MultiPolygon","coordinates":[[[[-64.83593,32.24721],[-64.83619,32.24715],[-64.83622,32.24694],[-64.83613,32.24695],[-64.83593,32.24721]]],[[[-64.83696,32.24716],[-64.83681,32.24732],[-64.83703,32.24721],[-64.83696,32.24716]]],[[[-64.84413,32.25552],[-64.84344,32.25576],[-64.8431,32.25632],[-64.84317,32.25661],[-64.84356,32.25672],[-64.84394,32.25636],[-64.84425,32.25586],[-64.84413,32.25552]]],[[[-64.85992,32.25737],[-64.86008,32.25709],[-64.85988,32.25689],[-64.85879,32.25683],[-64.85809,32.25624],[-64.85774,32.25653],[-64.85777,32.2568],[-64.85879,32.25778],[-64.85992,32.25737]]],[[[-64.83679,32.25763],[-64.83785,32.25741],[-64.83748,32.25732],[-64.83738,32.25704],[-64.83771,32.25691],[-64.83722,32.2568],[-64.83707,32.25638],[-64.83665,32.25635],[-64.83717,32.25687],[-64.83679,32.25763]]],[[[-64.86446,32.27074],[-64.86517,32.27077],[-64.87249,32.26697],[-64.87349,32.26856],[-64.87968,32.26532],[-64.87906,32.26181],[-64.87843,32.2614],[-64.8781,32.25978],[-64.87691,32.25892],[-64.87673,32.25832],[-64.87505,32.2572],[-64.87421,32.25595],[-64.87355,32.2557],[-64.87282,32.25465],[-64.87128,32.25371],[-64.86985,32.25245],[-64.8699,32.25228],[-64.86881,32.25204],[-64.86799,32.25125],[-64.86564,32.2503],[-64.86547,32.25003],[-64.86497,32.25003],[-64.86247,32.24817],[-64.86087,32.2482],[-64.85921,32.24768],[-64.85685,32.24804],[-64.8553,32.24786],[-64.8541,32.24844],[-64.85131,32.24909],[-64.85058,32.24914],[-64.85016,32.24889],[-64.84756,32.2492],[-64.84703,32.24905],[-64.84703,32.2488],[-64.84671,32.24867],[-64.84449,32.24842],[-64.84285,32.24875],[-64.84113,32.24876],[-64.83905,32.24804],[-64.8394,32.24754],[-64.83866,32.24752],[-64.83801,32.24788],[-64.83727,32.24794],[-64.83758,32.24823],[-64.837,32.24847],[-64.83649,32.24809],[-64.83716,32.24777],[-64.83717,32.24753],[-64.83649,32.24764],[-64.83609,32.24728],[-64.83544,32.24778],[-64.83541,32.24725],[-64.83494,32.24735],[-64.83448,32.24804],[-64.83492,32.24888],[-64.83369,32.24922],[-64.83315,32.24846],[-64.83391,32.24801],[-64.83394,32.2476],[-64.83239,32.24789],[-64.83185,32.24824],[-64.83154,32.24799],[-64.8316,32.24756],[-64.83083,32.24815],[-64.83097,32.24857],[-64.83061,32.2492],[-64.82926,32.24968],[-64.82769,32.2499],[-64.8274,32.2502],[-64.827,32.25011],[-64.82644,32.25044],[-64.82479,32.25039],[-64.82459,32.25026],[-64.82465,32.24983],[-64.82414,32.24989],[-64.82398,32.25014],[-64.82377,32.24997],[-64.82392,32.24975],[-64.82349,32.24981],[-64.82359,32.25016],[-64.82318,32.25037],[-64.82338,32.25006],[-64.82296,32.25031],[-64.82282,32.25002],[-64.82245,32.25026],[-64.82258,32.25063],[-64.82226,32.25134],[-64.82129,32.25207],[-64.81999,32.25243],[-64.81958,32.25227],[-64.81931,32.25173],[-64.81934,32.25242],[-64.81832,32.25262],[-64.81807,32.25297],[-64.81451,32.25454],[-64.81991,32.26237],[-64.82201,32.26212],[-64.82322,32.26235],[-64.82391,32.26193],[-64.82408,32.26216],[-64.8252,32.26192],[-64.82596,32.26141],[-64.82643,32.26075],[-64.82784,32.26005],[-64.82797,32.25973],[-64.82901,32.2599],[-64.82968,32.25968],[-64.83048,32.25989],[-64.83075,32.25972],[-64.83071,32.25927],[-64.83093,32.25956],[-64.83133,32.25927],[-64.83105,32.25895],[-64.83178,32.25889],[-64.83084,32.25828],[-64.82997,32.25846],[-64.82977,32.25816],[-64.82867,32.25797],[-64.8285,32.25749],[-64.82918,32.2572],[-64.82991,32.25703],[-64.83235,32.25713],[-64.83566,32.25622],[-64.83783,32.25599],[-64.83836,32.25664],[-64.83848,32.25721],[-64.83906,32.25645],[-64.83867,32.25602],[-64.8388,32.25583],[-64.84264,32.25474],[-64.8451,32.25439],[-64.84573,32.25484],[-64.84654,32.25443],[-64.84726,32.25453],[-64.84751,32.25396],[-64.84773,32.25392],[-64.84927,32.25438],[-64.85052,32.25355],[-64.85165,32.25371],[-64.85229,32.25407],[-64.85349,32.25397],[-64.85473,32.25503],[-64.8553,32.25474],[-64.85546,32.25424],[-64.85516,32.25414],[-64.85558,32.25409],[-64.85604,32.25326],[-64.85739,32.2535],[-64.85757,32.25357],[-64.85755,32.25402],[-64.8579,32.25386],[-64.85809,32.25407],[-64.85793,32.25466],[-64.85832,32.25501],[-64.85859,32.25583],[-64.8594,32.2564],[-64.86103,32.25695],[-64.8618,32.25671],[-64.86309,32.25756],[-64.86348,32.25709],[-64.86372,32.25712],[-64.86387,32.25728],[-64.86315,32.25858],[-64.86351,32.25899],[-64.86588,32.25984],[-64.86438,32.26079],[-64.86437,32.26165],[-64.86471,32.26206],[-64.86454,32.26255],[-64.86484,32.26267],[-64.86458,32.26281],[-64.86467,32.26415],[-64.8637,32.26493],[-64.86379,32.26586],[-64.8649,32.2677],[-64.86469,32.26874],[-64.86437,32.26891],[-64.86433,32.27025],[-64.86462,32.27037],[-64.86436,32.27053],[-64.86446,32.27074]]],[[[-64.8259,32.24956],[-64.82568,32.24998],[-64.82598,32.24986],[-64.82607,32.24933],[-64.82571,32.24936],[-64.8259,32.24956]]],[[[-64.83467,32.25967],[-64.83644,32.25847],[-64.83636,32.25805],[-64.83562,32.25825],[-64.83533,32.25809],[-64.83498,32.25902],[-64.83468,32.25892],[-64.83465,32.25841],[-64.83431,32.25818],[-64.8337,32.25807],[-64.83324,32.25834],[-64.83321,32.25892],[-64.83369,32.25911],[-64.83436,32.25894],[-64.83467,32.25967]]],[[[-64.8324,32.25904],[-64.8327,32.25891],[-64.83261,32.25871],[-64.83221,32.25886],[-64.8324,32.25904]]],[[[-64.83,32.26133],[-64.83074,32.26123],[-64.83159,32.26059],[-64.83308,32.26048],[-64.83339,32.26026],[-64.83357,32.25959],[-64.83335,32.25937],[-64.833,32.2599],[-64.83239,32.26015],[-64.83157,32.25981],[-64.83051,32.26028],[-64.82912,32.26027],[-64.82908,32.26054],[-64.83,32.26133]]],[[[-64.82687,32.26119],[-64.82721,32.26118],[-64.82718,32.26089],[-64.82695,32.26087],[-64.82687,32.26119]]],[[[-64.82881,32.26165],[-64.82835,32.26167],[-64.82837,32.26207],[-64.82895,32.2621],[-64.82881,32.26165]]]]}},{"type":"Feature","properties":{"name":"Warwick","osm_id":3644272,"wikidata":"Q1468860"},"geometry":{"type":"MultiPolygon","coordinates":[[[[-64.83429,32.27305],[-64.83426,32.27288],[-64.83403,32.27301],[-64.83429,32.27305]]],[[[-64.83518,32.27408],[-64.83563,32.2731],[-64.8353,32.27235],[-64.83414,32.27345],[-64.83429,32.27478],[-64.83531,32.27472],[-64.83518,32.27408]]],[[[-64.82658,32.27496],[-64.8255,32.2749],[-64.82518,32.27454],[-64.82475,32.27454],[-64.82408,32.27488],[-64.82403,32.27547],[-64.82595,32.27665],[-64.82658,32.27654],[-64.82663,32.27599],[-64.82628,32.27595],[-64.82623,32.27568],[-64.82658,32.27496]]],[[[-64.82853,32.27615],[-64.82904,32.27531],[-64.82861,32.27589],[-64.82813,32.27606],[-64.82853,32.27615]]],[[[-64.82494,32.2811],[-64.82369,32.28046],[-64.82366,32.28067],[-64.82402,32.28112],[-64.82494,32.2811]]],[[[-64.82604,32.28096],[-64.82526,32.2811],[-64.82622,32.28185],[-64.82697,32.28144],[-64.82604,32.28096]]],[[[-64.82824,32.28225],[-64.82786,32.28168],[-64.82757,32.28179],[-64.82788,32.28249],[-64.82824,32.28225]]],[[[-64.83152,32.28434],[-64.83227,32.2844],[-64.8314,32.284],[-64.83152,32.28434]]],[[[-64.8234,32.28361],[-64.82431,32.28629],[-64.8254,32.28567],[-64.82541,32.28531],[-64.82465,32.2841],[-64.82523,32.28305],[-64.82523,32.28279],[-64.82476,32.2825],[-64.8234,32.28361]]],[[[-64.82642,32.28622],[-64.82679,32.28677],[-64.82618,32.28737],[-64.82681,32.28745],[-64.82706,32.28709],[-64.82814,32.28829],[-64.82927,32.2878],[-64.8295,32.28791],[-64.82924,32.28835],[-64.82985,32.28819],[-64.83,32.28853],[-64.83027,32.28853],[-64.83108,32.28729],[-64.83061,32.28734],[-64.83047,32.28766],[-64.82963,32.28747],[-64.82969,32.28728],[-64.82921,32.28696],[-64.82951,32.28585],[-64.83013,32.28543],[-64.83029,32.28466],[-64.82922,32.2839],[-64.82906,32.28426],[-64.82703,32.28552],[-64.82692,32.28605],[-64.82642,32.28622]]],[[[-64.8254,32.28718],[-64.82577,32.28736],[-64.82593,32.28732],[-64.82546,32.28698],[-64.8254,32.28718]]],[[[-64.83172,32.28897],[-64.83167,32.28873],[-64.83097,32.28899],[-64.83034,32.28876],[-64.83013,32.28899],[-64.83075,32.28935],[-64.83172,32.28897]]],[[[-64.83261,32.28926],[-64.83253,32.28912],[-64.83214,32.28925],[-64.83231,32.28936],[-64.83261,32.28926]]],[[[-64.8338,32.28967],[-64.8338,32.28948],[-64.83276,32.28924],[-64.83311,32.28964],[-64.8338,32.28967]]],[[[-64.83743,32.29176],[-64.83707,32.29156],[-64.83689,32.29172],[-64.83737,32.29194],[-64.83743,32.29176]]],[[[-64.81925,32.26265],[-64.81991,32.26237],[-64.81448,32.25464],[-64.81398,32.2548],[-64.81362,32.25453],[-64.81391,32.25516],[-64.81377,32.25529],[-64.81315,32.25546],[-64.8127,32.25504],[-64.81258,32.25593],[-64.81219,32.25542],[-64.81198,32.25615],[-64.81163,32.25648],[-64.80847,32.25805],[-64.80722,32.25843],[-64.80399,32.26057],[-64.803,32.26075],[-64.80212,32.26127],[-64.80147,32.26122],[-64.79856,32.26291],[-64.79388,32.26517],[-64.78861,32.26708],[-64.78764,32.26774],[-64.7862,32.26808],[-64.79024,32.27387],[-64.79163,32.27543],[-64.79559,32.28133],[-64.79799,32.27991],[-64.80241,32.27607],[-64.80334,32.276],[-64.80626,32.27409],[-64.80722,32.27413],[-64.80796,32.27368],[-64.81082,32.27282],[-64.81125,32.27318],[-64.81162,32.27311],[-64.81238,32.27254],[-64.8124,32.27236],[-64.81189,32.27223],[-64.81238,32.27184],[-64.813,32.27205],[-64.81288,32.27156],[-64.81325,32.27118],[-64.81437,32.2711],[-64.8165,32.27029],[-64.8174,32.26959],[-64.82062,32.26846],[-64.82083,32.26811],[-64.82429,32.26767],[-64.82603,32.26783],[-64.82816,32.26754],[-64.82855,32.26764],[-64.82846,32.26788],[-64.83135,32.26655],[-64.82966,32.26616],[-64.82958,32.26584],[-64.83001,32.2651],[-64.83095,32.26478],[-64.83118,32.26448],[-64.82992,32.26404],[-64.82986,32.2638],[-64.8306,32.2636],[-64.83146,32.26245],[-64.83145,32.26208],[-64.83087,32.26178],[-64.83034,32.26209],[-64.83012,32.26251],[-64.82974,32.26252],[-64.8295,32.26212],[-64.82939,32.26266],[-64.82853,32.2629],[-64.82753,32.26282],[-64.82752,32.26373],[-64.82694,32.26346],[-64.826,32.26406],[-64.82594,32.26489],[-64.82498,32.26437],[-64.82508,32.26405],[-64.8257,32.2637],[-64.82553,32.26298],[-64.82372,32.26348],[-64.82321,32.26315],[-64.82345,32.26299],[-64.82327,32.2626],[-64.82097,32.26307],[-64.8199,32.2626],[-64.81942,32.26277],[-64.81933,32.26326],[-64.81915,32.2631],[-64.81925,32.26265]]],[[[-64.82221,32.27546],[-64.82399,32.27352],[-64.82424,32.27364],[-64.82453,32.27293],[-64.8241,32.27334],[-64.82226,32.2731],[-64.82206,32.2733],[-64.82223,32.27369],[-64.82199,32.27363],[-64.82101,32.27452],[-64.8199,32.27437],[-64.819,32.2752],[-64.81893,32.2756],[-64.81839,32.27541],[-64.81753,32.27581],[-64.81713,32.27535],[-64.81665,32.2758],[-64.81767,32.27622],[-64.81767,32.27676],[-64.81815,32.27699],[-64.8188,32.27602],[-64.81966,32.27639],[-64.81993,32.27613],[-64.82097,32.27609],[-64.82221,32.27546]]],[[[-64.82054,32.28103],[-64.8213,32.28132],[-64.82145,32.28117],[-64.82051,32.28057],[-64.81959,32.2807],[-64.81945,32.28099],[-64.81956,32.28134],[-64.8199,32.2814],[-64.82054,32.28103]]],[[[-64.82282,32.28086],[-64.82209,32.28103],[-64.82251,32.28182],[-64.82262,32.28164],[-64.82242,32.28144],[-64.82282,32.28086]]],[[[-64.81294,32.28182],[-64.8123,32.28177],[-64.81285,32.28209],[-64.81294,32.28182]]],[[[-64.82012,32.2845],[-64.82259,32.28397],[-64.8228,32.28351],[-64.82215,32.28282],[-64.82227,32.2822],[-64.82206,32.28192],[-64.82126,32.28148],[-64.82082,32.28165],[-64.82024,32.28243],[-64.81987,32.28247],[-64.81938,32.28214],[-64.81915,32.28246],[-64.81929,32.28338],[-64.82012,32.2845]]],[[[-64.8165,32.28377],[-64.81622,32.28332],[-64.81561,32.28327],[-64.81597,32.28397],[-64.81634,32.28402],[-64.8165,32.28377]]],[[[-64.81478,32.28401],[-64.81477,32.28372],[-64.81445,32.28362],[-64.81407,32.28384],[-64.81423,32.2841],[-64.81478,32.28401]]],[[[-64.80987,32.28233],[-64.80884,32.28249],[-64.8078,32.28357],[-64.80821,32.28446],[-64.80976,32.28407],[-64.81035,32.28454],[-64.811,32.28462],[-64.81096,32.28507],[-64.8122,32.28504],[-64.81512,32.28565],[-64.81443,32.28505],[-64.81379,32.28505],[-64.81303,32.28468],[-64.81324,32.28421],[-64.81311,32.28355],[-64.81265,32.28279],[-64.81221,32.28267],[-64.81145,32.28297],[-64.81137,32.28355],[-64.8116,32.28401],[-64.81225,32.28436],[-64.81146,32.2845],[-64.81104,32.28406],[-64.81034,32.28419],[-64.81011,32.28374],[-64.81035,32.2828],[-64.80987,32.28233]]],[[[-64.82011,32.28476],[-64.81813,32.28432],[-64.8177,32.28457],[-64.81901,32.28512],[-64.82011,32.28476]]],[[[-64.82292,32.28519],[-64.82327,32.28518],[-64.82331,32.28481],[-64.8229,32.28474],[-64.82292,32.28519]]],[[[-64.80809,32.28523],[-64.80752,32.28494],[-64.80689,32.28495],[-64.80766,32.28563],[-64.80813,32.28553],[-64.80809,32.28523]]],[[[-64.81565,32.28565],[-64.81651,32.28592],[-64.81651,32.28569],[-64.81565,32.28565]]],[[[-64.8101,32.28564],[-64.80945,32.28538],[-64.80893,32.28574],[-64.80892,32.28613],[-64.81047,32.2872],[-64.81131,32.28731],[-64.80991,32.28591],[-64.8101,32.28564]]],[[[-64.82034,32.28645],[-64.82523,32.28703],[-64.82501,32.28672],[-64.8226,32.28621],[-64.82266,32.28575],[-64.82257,32.28619],[-64.82203,32.28618],[-64.81927,32.28538],[-64.81872,32.28623],[-64.81818,32.28586],[-64.8165,32.28602],[-64.81615,32.28654],[-64.81577,32.28663],[-64.81559,32.28748],[-64.81528,32.28775],[-64.81574,32.28796],[-64.81694,32.28699],[-64.8174,32.2871],[-64.82034,32.28645]]]]}},{"type":"Feature","properties":{"name":"Hamilton","osm_id":3644277,"wikidata":"Q289876"},"geometry":{"type":"MultiPolygon","coordinates":[[[[-64.7378,32.32263],[-64.73824,32.32283],[-64.73917,32.32269],[-64.73802,32.31979],[-64.73448,32.32103],[-64.73542,32.32258],[-64.73623,32.32294],[-64.73568,32.32259],[-64.73594,32.32227],[-64.73749,32.32213],[-64.7378,32.32263]]],[[[-64.73724,32.32716],[-64.73714,32.32721],[-64.73729,32.32718],[-64.73724,32.32716]]],[[[-64.72853,32.33266],[-64.72846,32.33259],[-64.72835,32.3326],[-64.72853,32.33266]]],[[[-64.73066,32.33285],[-64.72973,32.33242],[-64.7295,32.33267],[-64.72982,32.33259],[-64.73032,32.33298],[-64.73066,32.33285]]],[[[-64.72712,32.33248],[-64.72795,32.33252],[-64.72739,32.33231],[-64.7261,32.33266],[-64.72629,32.33298],[-64.72599,32.33327],[-64.72699,32.33417],[-64.72649,32.3347],[-64.72616,32.33462],[-64.72652,32.33494],[-64.72721,32.33458],[-64.72724,32.33405],[-64.72829,32.33409],[-64.72784,32.33336],[-64.72695,32.3327],[-64.72712,32.33248]]],[[[-64.72507,32.33416],[-64.72546,32.3339],[-64.72515,32.33371],[-64.72507,32.33416]]],[[[-64.73317,32.33397],[-64.73335,32.334],[-64.73335,32.33394],[-64.73317,32.33397]]],[[[-64.72626,32.3505],[-64.72536,32.35004],[-64.72485,32.35112],[-64.72626,32.3505]]],[[[-64.71249,32.32994],[-64.71367,32.32914],[-64.70835,32.32251],[-64.70364,32.3253],[-64.70279,32.32533],[-64.70152,32.32603],[-64.69949,32.32759],[-64.69869,32.32766],[-64.69757,32.32837],[-64.70446,32.33673],[-64.7068,32.33519],[-64.70713,32.33458],[-64.70888,32.33381],[-64.70869,32.33359],[-64.70905,32.33358],[-64.70921,32.33313],[-64.70992,32.33295],[-64.71006,32.33261],[-64.71184,32.33131],[-64.71249,32.32994]]],[[[-64.71116,32.33768],[-64.71113,32.33781],[-64.71122,32.33772],[-64.71116,32.33768]]],[[[-64.71021,32.33816],[-64.71029,32.33822],[-64.71031,32.33818],[-64.71021,32.33816]]],[[[-64.71268,32.33973],[-64.71304,32.33933],[-64.71246,32.33855],[-64.71234,32.33929],[-64.71268,32.33973]]],[[[-64.74236,32.3248],[-64.7423,32.32378],[-64.74204,32.32367],[-64.7416,32.32375],[-64.74056,32.32333],[-64.73917,32.32348],[-64.7367,32.32291],[-64.73652,32.32376],[-64.73892,32.32406],[-64.73957,32.32377],[-64.73994,32.32402],[-64.74018,32.32389],[-64.74037,32.32429],[-64.74088,32.32432],[-64.74099,32.32459],[-64.74067,32.32492],[-64.73967,32.32484],[-64.73907,32.32511],[-64.73908,32.32534],[-64.73953,32.32554],[-64.73936,32.32577],[-64.7389,32.32569],[-64.73813,32.32598],[-64.73837,32.32675],[-64.73915,32.3272],[-64.73889,32.32733],[-64.73815,32.32708],[-64.73759,32.32735],[-64.7374,32.32771],[-64.73789,32.32834],[-64.73746,32.32867],[-64.73816,32.32926],[-64.73847,32.32924],[-64.73793,32.3302],[-64.73578,32.33049],[-64.73615,32.33071],[-64.73577,32.33117],[-64.73629,32.33163],[-64.73623,32.33192],[-64.73471,32.33172],[-64.73535,32.33283],[-64.73651,32.33336],[-64.73653,32.33361],[-64.7355,32.33393],[-64.73507,32.33436],[-64.73345,32.33439],[-64.73144,32.33551],[-64.7313,32.33572],[-64.73147,32.33595],[-64.73086,32.33658],[-64.72981,32.33675],[-64.72953,32.33704],[-64.72925,32.33753],[-64.72953,32.33806],[-64.72915,32.3387],[-64.72923,32.33919],[-64.72712,32.33925],[-64.72506,32.34046],[-64.72325,32.34062],[-64.72127,32.34136],[-64.72063,32.34264],[-64.71827,32.34313],[-64.71814,32.34355],[-64.71906,32.34362],[-64.71943,32.34403],[-64.71784,32.34501],[-64.71402,32.34519],[-64.71338,32.34577],[-64.71305,32.34575],[-64.71241,32.34491],[-64.71285,32.34452],[-64.71285,32.34416],[-64.71227,32.34434],[-64.71078,32.34338],[-64.71057,32.34307],[-64.71086,32.3424],[-64.70934,32.3422],[-64.70993,32.3415],[-64.71027,32.34033],[-64.71003,32.33983],[-64.70976,32.33982],[-64.70949,32.33891],[-64.70928,32.33886],[-64.70865,32.33972],[-64.70816,32.33954],[-64.70736,32.33844],[-64.70619,32.3384],[-64.7058,32.33821],[-64.70603,32.33798],[-64.70583,32.3378],[-64.70503,32.33774],[-64.70488,32.33747],[-64.70431,32.33758],[-64.7028,32.33591],[-64.69809,32.33885],[-64.69837,32.33935],[-64.70037,32.34019],[-64.70103,32.34095],[-64.70207,32.34146],[-64.70471,32.34192],[-64.70497,32.34175],[-64.70643,32.34196],[-64.70627,32.34324],[-64.70685,32.34363],[-64.70793,32.34372],[-64.7081,32.34487],[-64.7084,32.34486],[-64.70858,32.34455],[-64.70867,32.34476],[-64.70982,32.34485],[-64.7094,32.34588],[-64.7089,32.34593],[-64.70898,32.34539],[-64.70867,32.34516],[-64.7079,32.34536],[-64.70791,32.34562],[-64.70857,32.34573],[-64.70776,32.34602],[-64.70729,32.3464],[-64.7073,32.34673],[-64.70669,32.34707],[-64.70752,32.34718],[-64.70761,32.34767],[-64.70883,32.34775],[-64.70922,32.34799],[-64.70893,32.3492],[-64.70972,32.34948],[-64.70966,32.35003],[-64.71023,32.35035],[-64.71025,32.35065],[-64.70961,32.3512],[-64.70985,32.35157],[-64.70914,32.35241],[-64.70979,32.35188],[-64.71036,32.35281],[-64.71203,32.35395],[-64.71333,32.35403],[-64.7134,32.3538],[-64.71373,32.35384],[-64.7141,32.3543],[-64.71478,32.35454],[-64.71493,32.35505],[-64.71538,32.35505],[-64.71617,32.3555],[-64.71618,32.35584],[-64.71668,32.35638],[-64.71779,32.35718],[-64.71756,32.35683],[-64.71849,32.3555],[-64.71814,32.35507],[-64.7182,32.35402],[-64.71972,32.35335],[-64.72016,32.35277],[-64.72,32.35257],[-64.72079,32.352],[-64.7227,32.35133],[-64.72325,32.35141],[-64.72316,32.35075],[-64.72243,32.35046],[-64.72185,32.34956],[-64.72215,32.34935],[-64.7229,32.34955],[-64.7241,32.34878],[-64.72546,32.34851],[-64.72611,32.34795],[-64.72665,32.34802],[-64.7277,32.34708],[-64.73065,32.34564],[-64.73169,32.34538],[-64.73293,32.34557],[-64.73639,32.34436],[-64.7373,32.34344],[-64.73699,32.34246],[-64.73712,32.34181],[-64.73747,32.34185],[-64.737,32.34154],[-64.73728,32.34112],[-64.73758,32.34111],[-64.73731,32.34063],[-64.73768,32.34041],[-64.73751,32.33999],[-64.73821,32.34012],[-64.7379,32.33968],[-64.73823,32.33931],[-64.73929,32.33925],[-64.73984,32.33864],[-64.73968,32.33848],[-64.74005,32.33826],[-64.73981,32.33768],[-64.74007,32.33734],[-64.73977,32.33716],[-64.73921,32.33738],[-64.73936,32.33668],[-64.73984,32.33709],[-64.74023,32.33707],[-64.74012,32.33692],[-64.7403,32.33694],[-64.74043,32.33655],[-64.7402,32.33587],[-64.74075,32.33572],[-64.74124,32.3341],[-64.74145,32.33393],[-64.74169,32.33407],[-64.74174,32.33336],[-64.7421,32.33322],[-64.74194,32.33292],[-64.74153,32.33288],[-64.74095,32.3334],[-64.73991,32.33352],[-64.73927,32.33299],[-64.73895,32.33224],[-64.73971,32.33084],[-64.74165,32.32892],[-64.74263,32.32609],[-64.74316,32.32544],[-64.74302,32.32509],[-64.74236,32.3248]]],[[[-64.72441,32.34018],[-64.72468,32.34036],[-64.72485,32.34017],[-64.72441,32.34018]]],[[[-64.71304,32.34439],[-64.71329,32.34429],[-64.71313,32.3442],[-64.71304,32.34439]]]]}},{"type":"Feature","properties":{"name":"St. George's","osm_id":3644285,"wikidata":"Q1521745"},"geometry":{"type":"MultiPolygon","coordinates":[[[[-64.69721,32.33885],[-64.69809,32.33885],[-64.7028,32.33591],[-64.70409,32.33721],[-64.70446,32.33673],[-64.69757,32.32837],[-64.69228,32.32979],[-64.69153,32.32959],[-64.69153,32.3298],[-64.68886,32.33138],[-64.68688,32.33107],[-64.68626,32.33128],[-64.68592,32.33203],[-64.68457,32.33245],[-64.68481,32.33292],[-64.6846,32.3331],[-64.68421,32.33301],[-64.68332,32.33383],[-64.68104,32.33489],[-64.68058,32.335],[-64.67976,32.33472],[-64.67903,32.33507],[-64.67846,32.33493],[-64.67709,32.33537],[-64.67635,32.33604],[-64.67659,32.33662],[-64.67687,32.33672],[-64.67676,32.3374],[-64.67582,32.33794],[-64.6746,32.33802],[-64.67394,32.33871],[-64.67479,32.33936],[-64.67613,32.33851],[-64.67656,32.3384],[-64.67702,32.33861],[-64.67851,32.33678],[-64.67852,32.336],[-64.68025,32.33544],[-64.68131,32.33565],[-64.6812,32.33623],[-64.68157,32.33637],[-64.68264,32.3361],[-64.68324,32.33511],[-64.68427,32.33461],[-64.6861,32.33497],[-64.68743,32.33467],[-64.68644,32.33443],[-64.68637,32.33368],[-64.68766,32.33394],[-64.68826,32.33356],[-64.68873,32.33379],[-64.68913,32.33437],[-64.69018,32.33438],[-64.69019,32.33418],[-64.69106,32.334],[-64.69101,32.33366],[-64.69146,32.33345],[-64.69128,32.33237],[-64.6919,32.33214],[-64.69225,32.33279],[-64.69323,32.33342],[-64.69323,32.33372],[-64.69267,32.33423],[-64.69168,32.33353],[-64.69194,32.33471],[-64.69162,32.33508],[-64.69101,32.33514],[-64.6912,32.3356],[-64.69191,32.33559],[-64.69176,32.33585],[-64.69125,32.33579],[-64.69204,32.3366],[-64.69127,32.33676],[-64.69121,32.33712],[-64.69207,32.33722],[-64.69209,32.33781],[-64.69242,32.338],[-64.69363,32.33811],[-64.69384,32.33754],[-64.69423,32.33746],[-64.69442,32.33778],[-64.6951,32.33776],[-64.69721,32.33885]]],[[[-64.673,32.33824],[-64.67406,32.3371],[-64.67306,32.3376],[-64.673,32.33824]]],[[[-64.67129,32.33916],[-64.67148,32.33876],[-64.67233,32.33862],[-64.67228,32.3383],[-64.67082,32.33806],[-64.67033,32.33771],[-64.6703,32.33822],[-64.67055,32.33857],[-64.67017,32.33856],[-64.66997,32.33885],[-64.67049,32.33915],[-64.67129,32.33916]]],[[[-64.67371,32.33911],[-64.67325,32.33966],[-64.67353,32.33956],[-64.67371,32.33911]]],[[[-64.6726,32.34105],[-64.67329,32.34009],[-64.67319,32.33981],[-64.67286,32.34013],[-64.67169,32.34039],[-64.67143,32.34037],[-64.67135,32.33985],[-64.6713,32.34011],[-64.67074,32.34039],[-64.6713,32.34107],[-64.67213,32.34122],[-64.6726,32.34105]]],[[[-64.71672,32.35783],[-64.71619,32.35719],[-64.7159,32.35761],[-64.71563,32.35754],[-64.71561,32.35725],[-64.71518,32.35724],[-64.71407,32.35784],[-64.71411,32.35827],[-64.7136,32.35902],[-64.71422,32.35962],[-64.71418,32.36021],[-64.71459,32.35936],[-64.7157,32.35998],[-64.71584,32.35918],[-64.71654,32.35903],[-64.71677,32.35835],[-64.7166,32.35815],[-64.71614,32.35838],[-64.71604,32.35815],[-64.71703,32.35789],[-64.71672,32.35783]]],[[[-64.70694,32.36191],[-64.70577,32.35944],[-64.70599,32.35895],[-64.70573,32.35875],[-64.70544,32.359],[-64.70471,32.35876],[-64.70485,32.35848],[-64.70267,32.35839],[-64.70022,32.3596],[-64.69916,32.35892],[-64.69832,32.35872],[-64.69766,32.35906],[-64.69521,32.36164],[-64.69327,32.36274],[-64.6939,32.3633],[-64.696,32.36317],[-64.69787,32.36237],[-64.69849,32.36242],[-64.69891,32.36213],[-64.69934,32.36106],[-64.69956,32.36157],[-64.69881,32.36234],[-64.69692,32.36321],[-64.69663,32.36309],[-64.69555,32.36363],[-64.69506,32.36359],[-64.6949,32.36389],[-64.69366,32.36439],[-64.69087,32.36436],[-64.68937,32.36399],[-64.68806,32.36319],[-64.68716,32.36184],[-64.68739,32.36104],[-64.68671,32.35517],[-64.6864,32.35399],[-64.68596,32.35371],[-64.68496,32.35382],[-64.68411,32.3549],[-64.68439,32.35691],[-64.68447,32.36132],[-64.68357,32.36274],[-64.68189,32.36319],[-64.67976,32.36323],[-64.67796,32.36307],[-64.67578,32.36256],[-64.67568,32.36232],[-64.67367,32.36233],[-64.67371,32.36217],[-64.6735,32.36229],[-64.67225,32.36195],[-64.67214,32.36169],[-64.67151,32.36168],[-64.67053,32.36126],[-64.67026,32.36089],[-64.66943,32.36073],[-64.6679,32.35974],[-64.66873,32.35997],[-64.66887,32.35973],[-64.66731,32.35948],[-64.66419,32.35774],[-64.66344,32.35666],[-64.66364,32.35594],[-64.66346,32.35572],[-64.66354,32.35482],[-64.66315,32.3547],[-64.66309,32.3552],[-64.66238,32.35496],[-64.66136,32.35276],[-64.66029,32.35157],[-64.65966,32.35035],[-64.65947,32.34893],[-64.65837,32.34891],[-64.65893,32.34948],[-64.6584,32.35011],[-64.65708,32.34987],[-64.65648,32.34951],[-64.65624,32.34903],[-64.65698,32.348],[-64.65739,32.34786],[-64.65718,32.34764],[-64.65647,32.3478],[-64.65605,32.3482],[-64.65605,32.34796],[-64.65578,32.34793],[-64.65573,32.34832],[-64.65524,32.34822],[-64.6553,32.34838],[-64.65493,32.34852],[-64.65478,32.34839],[-64.65476,32.34866],[-64.65438,32.34865],[-64.65389,32.34846],[-64.65402,32.34798],[-64.65354,32.34777],[-64.65384,32.3471],[-64.65311,32.34713],[-64.65332,32.34687],[-64.65301,32.34646],[-64.65285,32.34656],[-64.65293,32.34623],[-64.65233,32.34738],[-64.65246,32.34771],[-64.65303,32.34794],[-64.65304,32.34864],[-64.65368,32.34892],[-64.65384,32.34938],[-64.65524,32.34982],[-64.65649,32.35081],[-64.6561,32.35133],[-64.65668,32.35186],[-64.65668,32.35228],[-64.6559,32.35241],[-64.65577,32.35265],[-64.65603,32.35296],[-64.65652,32.35303],[-64.65559,32.35365],[-64.65559,32.35397],[-64.65613,32.3542],[-64.65682,32.35361],[-64.65776,32.35439],[-64.65793,32.35501],[-64.65846,32.3548],[-64.65961,32.35559],[-64.66061,32.35698],[-64.66042,32.358],[-64.65962,32.3608],[-64.65922,32.3612],[-64.65844,32.36128],[-64.6584,32.36106],[-64.65826,32.36133],[-64.65774,32.36144],[-64.65742,32.36086],[-64.65565,32.36123],[-64.65496,32.36164],[-64.65415,32.36166],[-64.65302,32.36109],[-64.65191,32.35984],[-64.65002,32.36205],[-64.65004,32.36265],[-64.64959,32.36294],[-64.64934,32.36358],[-64.64922,32.36489],[-64.64973,32.36567],[-64.64886,32.36663],[-64.64893,32.36699],[-64.64736,32.3674],[-64.64724,32.36788],[-64.64753,32.36807],[-64.6475,32.36832],[-64.64838,32.36855],[-64.64823,32.36924],[-64.64879,32.36987],[-64.64914,32.36994],[-64.64956,32.36946],[-64.6501,32.3697],[-64.65011,32.37009],[-64.6493,32.37063],[-64.64895,32.37122],[-64.64975,32.37205],[-64.65075,32.37193],[-64.65135,32.3722],[-64.6528,32.37197],[-64.6537,32.37225],[-64.65534,32.37175],[-64.65571,32.37199],[-64.65619,32.37182],[-64.65573,32.37137],[-64.65654,32.37116],[-64.65644,32.37054],[-64.65623,32.37021],[-64.65526,32.37009],[-64.65646,32.3694],[-64.65726,32.36935],[-64.65744,32.36877],[-64.65672,32.36869],[-64.65621,32.36805],[-64.65578,32.36796],[-64.65548,32.36808],[-64.6555,32.36852],[-64.65513,32.36878],[-64.65242,32.3694],[-64.65233,32.36863],[-64.65367,32.36802],[-64.65411,32.3681],[-64.65521,32.3673],[-64.65719,32.36707],[-64.65717,32.36777],[-64.65781,32.3671],[-64.65995,32.36702],[-64.66033,32.36657],[-64.6598,32.36492],[-64.66041,32.36487],[-64.66143,32.36577],[-64.66279,32.36544],[-64.66341,32.36604],[-64.66377,32.36561],[-64.66456,32.36577],[-64.66498,32.36551],[-64.66585,32.36591],[-64.66656,32.36593],[-64.66615,32.36641],[-64.666,32.36704],[-64.66466,32.36714],[-64.66397,32.36799],[-64.66402,32.36896],[-64.66442,32.36983],[-64.66468,32.36994],[-64.66594,32.36915],[-64.66699,32.36973],[-64.66996,32.37021],[-64.67002,32.36986],[-64.67048,32.36951],[-64.67137,32.36973],[-64.6719,32.36944],[-64.67256,32.37009],[-64.67273,32.37084],[-64.67379,32.37074],[-64.67485,32.371],[-64.67592,32.37068],[-64.67639,32.37024],[-64.67699,32.37036],[-64.67804,32.37015],[-64.6783,32.3705],[-64.67775,32.37051],[-64.67793,32.37069],[-64.68229,32.37091],[-64.68487,32.37133],[-64.687,32.37208],[-64.68617,32.37156],[-64.68609,32.37094],[-64.68749,32.36971],[-64.68896,32.36964],[-64.69066,32.37017],[-64.69246,32.37033],[-64.69415,32.36959],[-64.69528,32.3685],[-64.69624,32.36794],[-64.70095,32.36601],[-64.70311,32.36546],[-64.70671,32.36408],[-64.70709,32.36347],[-64.70694,32.36191]]],[[[-64.71371,32.36137],[-64.71338,32.36167],[-64.71341,32.36194],[-64.71388,32.36233],[-64.71421,32.36185],[-64.71371,32.36137]]],[[[-64.7085,32.36467],[-64.70845,32.3644],[-64.70813,32.3648],[-64.70825,32.36482],[-64.7085,32.36467]]],[[[-64.67159,32.37061],[-64.67148,32.37042],[-64.67143,32.37051],[-64.67159,32.37061]]],[[[-64.67543,32.37149],[-64.67498,32.37138],[-64.67427,32.37179],[-64.67451,32.37187],[-64.67543,32.37149]]],[[[-64.69159,32.37804],[-64.69016,32.37765],[-64.69099,32.37672],[-64.69201,32.37643],[-64.69234,32.37587],[-64.6896,32.37541],[-64.68767,32.37581],[-64.68762,32.37612],[-64.68686,32.37637],[-64.68648,32.37587],[-64.68626,32.37591],[-64.68644,32.37679],[-64.68713,32.37704],[-64.68729,32.37733],[-64.68663,32.37754],[-64.68593,32.37734],[-64.68543,32.37767],[-64.685,32.37758],[-64.68465,32.37788],[-64.68407,32.37786],[-64.68754,32.38152],[-64.69067,32.37961],[-64.6913,32.37954],[-64.69149,32.37936],[-64.69132,32.37919],[-64.69176,32.37881],[-64.69213,32.37895],[-64.6927,32.37872],[-64.69293,32.37813],[-64.69363,32.37822],[-64.69372,32.37773],[-64.6945,32.37773],[-64.69471,32.3773],[-64.69561,32.37699],[-64.69615,32.37643],[-64.69716,32.37617],[-64.69887,32.37518],[-64.6995,32.3744],[-64.70009,32.37436],[-64.70408,32.37133],[-64.71043,32.36854],[-64.71271,32.36721],[-64.71274,32.36699],[-64.71353,32.36661],[-64.71361,32.36587],[-64.71415,32.36551],[-64.71398,32.3653],[-64.71332,32.36542],[-64.71254,32.36484],[-64.71258,32.36411],[-64.71348,32.36402],[-64.71387,32.36372],[-64.71484,32.36398],[-64.71579,32.36231],[-64.71623,32.36196],[-64.71554,32.36179],[-64.7155,32.36207],[-64.71496,32.36241],[-64.71348,32.36276],[-64.71246,32.36261],[-64.71218,32.36323],[-64.71076,32.36356],[-64.71221,32.36361],[-64.711,32.36455],[-64.71111,32.36539],[-64.70945,32.36545],[-64.70875,32.36633],[-64.70754,32.36624],[-64.7068,32.36588],[-64.7063,32.36624],[-64.70625,32.36693],[-64.70502,32.36698],[-64.70387,32.3681],[-64.70154,32.36805],[-64.70016,32.36877],[-64.69855,32.36919],[-64.69859,32.37003],[-64.69825,32.37029],[-64.69831,32.37117],[-64.69724,32.36953],[-64.69652,32.37],[-64.69428,32.37063],[-64.69428,32.37105],[-64.69462,32.37129],[-64.69434,32.37144],[-64.69358,32.37106],[-64.69287,32.37114],[-64.69249,32.37187],[-64.69195,32.37185],[-64.69167,32.37208],[-64.69166,32.37302],[-64.6905,32.37262],[-64.69009,32.37232],[-64.68984,32.37173],[-64.68878,32.37188],[-64.68824,32.37249],[-64.68828,32.37273],[-64.68872,32.37304],[-64.68865,32.37391],[-64.68924,32.3744],[-64.69008,32.37432],[-64.69052,32.37456],[-64.69149,32.37377],[-64.69206,32.37394],[-64.69219,32.37362],[-64.69584,32.37497],[-64.69536,32.37604],[-64.69401,32.37655],[-64.69355,32.37719],[-64.69213,32.37688],[-64.69194,32.37718],[-64.6923,32.37795],[-64.69159,32.37804]]],[[[-64.67109,32.37497],[-64.67054,32.37457],[-64.67033,32.37471],[-64.67064,32.3751],[-64.67109,32.37497]]],[[[-64.6937,32.37584],[-64.6937,32.37561],[-64.69312,32.37567],[-64.69289,32.37626],[-64.6937,32.37584]]],[[[-64.67158,32.37558],[-64.67051,32.37556],[-64.67029,32.37603],[-64.67068,32.37623],[-64.67115,32.37599],[-64.67186,32.37683],[-64.67217,32.37683],[-64.67226,32.37654],[-64.67258,32.37663],[-64.67246,32.37635],[-64.6717,32.37606],[-64.67158,32.37558]]],[[[-64.6699,32.33714],[-64.66983,32.33766],[-64.67013,32.33737],[-64.6699,32.33714]]],[[[-64.66254,32.33847],[-64.66294,32.33881],[-64.66295,32.33856],[-64.66254,32.33847]]],[[[-64.66852,32.34128],[-64.66873,32.34119],[-64.66874,32.34087],[-64.66852,32.34128]]],[[[-64.66755,32.34274],[-64.66764,32.34161],[-64.66711,32.34169],[-64.66676,32.34234],[-64.66675,32.343],[-64.66755,32.34274]]],[[[-64.66652,32.3432],[-64.66585,32.343],[-64.66587,32.34352],[-64.6664,32.34342],[-64.66652,32.3432]]],[[[-64.66676,32.34484],[-64.66641,32.3447],[-64.66634,32.34501],[-64.66672,32.34502],[-64.66676,32.34484]]],[[[-64.66647,32.34559],[-64.66582,32.34587],[-64.66576,32.34604],[-64.66682,32.3458],[-64.66647,32.34559]]],[[[-64.66179,32.34538],[-64.66133,32.34538],[-64.66157,32.34581],[-64.6611,32.34649],[-64.66118,32.34838],[-64.66199,32.34836],[-64.66259,32.34883],[-64.66344,32.34807],[-64.66457,32.34798],[-64.66532,32.34721],[-64.66555,32.34624],[-64.66463,32.34687],[-64.66339,32.34704],[-64.66288,32.34683],[-64.66253,32.34716],[-64.66203,32.34714],[-64.66169,32.34668],[-64.66209,32.3458],[-64.66179,32.34538]]],[[[-64.65841,32.37091],[-64.65836,32.37128],[-64.65884,32.37187],[-64.66077,32.37192],[-64.66113,32.37285],[-64.66353,32.37258],[-64.66367,32.37282],[-64.6653,32.37301],[-64.66733,32.37392],[-64.66681,32.37282],[-64.66634,32.37265],[-64.66679,32.37233],[-64.66748,32.37296],[-64.66792,32.37304],[-64.6689,32.37305],[-64.6693,32.37273],[-64.66952,32.37296],[-64.66947,32.37403],[-64.67022,32.37432],[-64.67064,32.37408],[-64.67028,32.37359],[-64.67014,32.37244],[-64.66982,32.37198],[-64.66834,32.37116],[-64.66526,32.3703],[-64.66295,32.36986],[-64.6615,32.36985],[-64.66091,32.36999],[-64.66067,32.37044],[-64.65996,32.37036],[-64.65979,32.37076],[-64.65877,32.37067],[-64.65841,32.37091]]],[[[-64.66393,32.37348],[-64.66418,32.37354],[-64.66424,32.37351],[-64.66418,32.37346],[-64.66393,32.37348]]],[[[-64.66573,32.37436],[-64.66561,32.37403],[-64.66517,32.37401],[-64.66541,32.37425],[-64.66573,32.37436]]],[[[-64.66985,32.3747],[-64.67015,32.37465],[-64.67014,32.37459],[-64.67004,32.37459],[-64.66985,32.3747]]],[[[-64.66405,32.37759],[-64.665,32.37767],[-64.66509,32.37734],[-64.66441,32.37724],[-64.66464,32.37681],[-64.66449,32.37673],[-64.66405,32.37759]]],[[[-64.662,32.37809],[-64.66351,32.37794],[-64.66372,32.37742],[-64.66343,32.37733],[-64.66332,32.37698],[-64.66259,32.37693],[-64.66201,32.37737],[-64.66215,32.37746],[-64.66185,32.37794],[-64.662,32.37809]]],[[[-64.66679,32.38247],[-64.66725,32.38262],[-64.66953,32.38037],[-64.66873,32.37982],[-64.66791,32.37963],[-64.66696,32.37883],[-64.66574,32.37846],[-64.66357,32.37873],[-64.6627,32.37908],[-64.66277,32.37944],[-64.66318,32.37948],[-64.66295,32.37982],[-64.66402,32.38078],[-64.66474,32.38099],[-64.6652,32.38076],[-64.66508,32.38048],[-64.66537,32.38045],[-64.66613,32.38172],[-64.66692,32.38203],[-64.66679,32.38247]]],[[[-64.661,32.33886],[-64.66098,32.33892],[-64.66104,32.33884],[-64.661,32.33886]]],[[[-64.6613,32.34458],[-64.6612,32.34421],[-64.66053,32.34423],[-64.66107,32.34475],[-64.6613,32.34458]]],[[[-64.66088,32.3455],[-64.66118,32.3456],[-64.66121,32.34528],[-64.66096,32.34526],[-64.66088,32.3455]]],[[[-64.65315,32.34592],[-64.65314,32.34602],[-64.65321,32.34602],[-64.65315,32.34592]]],[[[-64.66023,32.34668],[-64.66019,32.34683],[-64.66033,32.34672],[-64.66023,32.34668]]],[[[-64.65103,32.34817],[-64.65033,32.34854],[-64.65042,32.34908],[-64.65073,32.34892],[-64.65103,32.34817]]],[[[-64.65228,32.35108],[-64.65321,32.34994],[-64.65252,32.35029],[-64.65249,32.35071],[-64.65227,32.35086],[-64.65207,32.35061],[-64.65173,32.35099],[-64.65228,32.35108]]],[[[-64.65624,32.35466],[-64.65564,32.35462],[-64.65586,32.35545],[-64.65569,32.35571],[-64.65602,32.35603],[-64.65595,32.35528],[-64.65644,32.35492],[-64.65624,32.35466]]],[[[-64.65494,32.35655],[-64.65456,32.3567],[-64.65458,32.35722],[-64.65403,32.35817],[-64.65485,32.35759],[-64.65494,32.35655]]],[[[-64.66214,32.36697],[-64.66132,32.36626],[-64.66093,32.36639],[-64.66096,32.36716],[-64.6623,32.36752],[-64.66214,32.36697]]],[[[-64.6601,32.36772],[-64.66054,32.36782],[-64.66054,32.36728],[-64.6602,32.36719],[-64.6601,32.36772]]],[[[-64.65699,32.37075],[-64.65722,32.37082],[-64.65695,32.3706],[-64.65699,32.37075]]],[[[-64.65778,32.37216],[-64.65789,32.37161],[-64.65734,32.37164],[-64.65738,32.37216],[-64.65778,32.37216]]],[[[-64.66054,32.37689],[-64.66091,32.37692],[-64.66088,32.37715],[-64.6615,32.37717],[-64.66174,32.37696],[-64.6617,32.37654],[-64.66214,32.3765],[-64.66242,32.3761],[-64.66343,32.37666],[-64.66382,32.37533],[-64.66295,32.37534],[-64.66169,32.37495],[-64.66061,32.37408],[-64.65958,32.37404],[-64.65832,32.37329],[-64.65702,32.37342],[-64.6572,32.37398],[-64.65772,32.37431],[-64.65783,32.37533],[-64.65839,32.37553],[-64.65859,32.37588],[-64.65946,32.37604],[-64.66054,32.37689]]]]}}]}